TEVEL2-5                
1 63214U 25052E   26068.96660006  .00021339  00000+0  71765-3 0  9991
2 63214  97.4013 325.3677 0004700  95.3936 264.7842 15.30817434 54919
STARLINK-36516          
1 67455U 26008L   26068.42242699  .00025226  00000+0  92264-3 0  9995
2 67455  42.9992 206.5347 0002006 299.4788  60.5863 15.27594547  9530
